IRIDIUM 150             
1 43257U 18030J   24203.55600935  .00000082  00000+0  22339-4 0  9999
2 43257  86.3962 221.1574 0002401  84.1537 275.9933 14.34217064330459
IRIDIUM 143             
1 43258U 18030K   24203.53698249 -.00000056  00000+0 -27032-4 0  9991
2 43258  86.3971 221.2306 0002227  82.0257 278.1191 14.34216751330381
IRIDIUM 161             
1 43478U 18047C   24203.57267607  .00000339  00000+0  94716-4 0  9992
2 43478  86.4492  19.1649 0002063  84.6144 275.5292 14.43281119324802
IRIDIUM 152             
1 43479U 18047D   24203.57947044  .00000383  00000+0  12962-3 0  9994
2 43479  86.3966  19.0213 0002178  91.0254 269.1191 14.34215752322787
IRIDIUM 147             
1 43480U 18047E   24203.86488738  .00000258  00000+0  85004-4 0  9997
2 43480  86.3969  18.8952 0002129  92.5362 267.6077 14.34218909322829
IRIDIUM 110             
1 43481U 18047F   24203.59215684  .00000262  00000+0  86341-4 0  9996
2 43481  86.3970  19.0830 0002228 100.6762 259.4685 14.34216969322777
IRIDIUM 162             
1 43482U 18047G   24203.56646330  .00000344  00000+0  96378-4 0  9992
2 43482  86.4490  19.0671 0002268  89.7384 270.4077 14.43276446324798
IRIDIUM 160             
1 43569U 18061A   24203.46822238  .00000195  00000+0  62457-4 0  9991
2 43569  86.3998 347.5216 0001819 100.9364 259.2036 14.34217614313650
